NORAD_CAT_ID,OBJECT_NAME,OBJECT_TYPE,EPOCH,MEAN_MOTION,ECCENTRICITY,INCLINATION,RA_OF_ASC_NODE,ARG_OF_PERICENTER,MEAN_ANOMALY,BSTAR,MEAN_MOTION_DOT,MEAN_MOTION_DDOT,TLE_LINE0,TLE_LINE1,TLE_LINE2,SEMIMAJOR_AXIS,PERIOD,APOGEE,PERIGEE,DECAYED
55769.0,STARLINK-5584,PAYLOAD,2023-11-28 14:33:18,14.98337048,0.0003152,69.9991,162.494,269.7774,90.3024,-4.6885e-05,-6.53e-06,0.0,0 STARLINK-5584,1 55769U 23028AE  23332.60646190 -.00000653  00000-0 -46885-4 0  9993,2 55769  69.9991 162.4940 0003152 269.7774  90.3024 14.98337048 41893,6950.171,96.107,574.227,569.845,0.0
55769.0,STARLINK-5584,PAYLOAD,2023-11-28 19:21:42,14.98334959,0.0003183,69.9992,161.9883,269.0572,91.0222,-2.1195e-05,-3.46e-06,0.0,0 STARLINK-5584,1 55769U 23028AE  23332.80674132 -.00000346  00000-0 -21195-4 0  9998,2 55769  69.9992 161.9883 0003183 269.0572  91.0222 14.98334959 41916,6950.178,96.107,574.255,569.83,0.0
55769.0,STARLINK-5584,PAYLOAD,2023-11-28 22:33:58,14.98339036,0.0003091,69.9995,161.6528,266.9968,93.0838,-1.7143e-05,-2.98e-06,0.0,0 STARLINK-5584,1 55769U 23028AE  23332.94025776 -.00000298  00000-0 -17143-4 0  9991,2 55769  69.9995 161.6528 0003091 266.9968  93.0838 14.98339036 41944,6950.165,96.106,574.178,569.882,0.0
55769.0,STARLINK-5584,PAYLOAD,2023-11-29 14:35:18,14.98335303,0.000319,69.9994,159.9692,268.6664,91.413,7.892e-05,8.49e-06,0.0,0 STARLINK-5584,1 55769U 23028AE  23333.60785231  .00000849  00000-0  78920-4 0  9994,2 55769  69.9994 159.9692 0003190 268.6664  91.4130 14.98335303 42049,6950.176,96.107,574.259,569.824,0.0
55769.0,STARLINK-5584,PAYLOAD,2023-11-29 19:23:42,14.98335795,0.0002969,69.9998,159.4644,270.3048,89.777,9.7893e-05,1.075e-05,0.0,0 STARLINK-5584,1 55769U 23028AE  23333.80813117  .00001075  00000-0  97893-4 0  9993,2 55769  69.9998 159.4644 0002969 270.3048  89.7770 14.98335795 42061,6950.175,96.107,574.103,569.976,0.0
55769.0,STARLINK-5584,PAYLOAD,2023-11-30 19:25:43,14.98333707,0.0003011,70.0,156.94,269.8325,90.2489,-4.8246e-05,-6.69e-06,0.0,0 STARLINK-5584,1 55769U 23028AE  23334.80953272 -.00000669  00000-0 -48246-4 0  9999,2 55769  70.0000 156.9400 0003011 269.8325  90.2489 14.98333707 42212,6950.181,96.107,574.139,569.954,0.0
55769.0,STARLINK-5584,PAYLOAD,2023-11-30 22:38:00,14.98315288,0.0002914,69.9998,156.6034,267.1005,92.982,0.00024952,2.884e-05,0.0,0 STARLINK-5584,1 55769U 23028AE  23334.94305713  .00002884  00000-0  24952-3 0  9991,2 55769  69.9998 156.6034 0002914 267.1005  92.9820 14.98315288 42236,6950.238,96.108,574.129,570.078,0.0
55769.0,STARLINK-5584,PAYLOAD,2023-12-01 11:27:03,14.98336305,0.0002959,69.9998,155.2567,269.7217,90.3603,-3.9494e-05,-5.64e-06,0.0,0 STARLINK-5584,1 55769U 23028AE  23335.47712884 -.00000564  00000-0 -39494-4 0  9994,2 55769  69.9998 155.2567 0002959 269.7217  90.3603 14.98336305 42317,6950.173,96.107,574.095,569.982,0.0
55769.0,STARLINK-5584,PAYLOAD,2023-12-01 21:03:52,14.98337244,0.0002914,69.9995,154.2462,265.4203,94.6623,-3.7386e-05,-5.39e-06,0.0,0 STARLINK-5584,1 55769U 23028AE  23335.87768579 -.00000539  00000-0 -37386-4 0  9990,2 55769  69.9995 154.2462 0002914 265.4203  94.6623 14.98337244 42385,6950.17,96.107,574.061,570.01,0.0
55769.0,STARLINK-5584,PAYLOAD,2023-12-02 14:41:20,14.98330405,0.0002602,69.9994,152.395,258.8205,101.2662,6.3011e-06,-1.8e-07,0.0,0 STARLINK-5584,1 55769U 23028AE  23336.61204645 -.00000018  00000-0  63011-5 0  9998,2 55769  69.9994 152.3950 0002602 258.8205 101.2662 14.98330405 42499,6950.192,96.107,573.865,570.248,0.0
55769.0,STARLINK-5584,PAYLOAD,2023-12-02 19:29:44,14.98330519,0.0002581,69.9994,151.8899,255.6061,104.4812,3.1749e-06,-5.5e-07,0.0,0 STARLINK-5584,1 55769U 23028AE  23336.81232613 -.00000055  00000-0  31749-5 0  9990,2 55769  69.9994 151.8899 0002581 255.6061 104.4812 14.98330519 42517,6950.191,96.107,573.85,570.262,0.0
55769.0,STARLINK-5584,PAYLOAD,2023-12-02 21:05:53,14.983294,0.0002596,69.9993,151.7216,258.7882,101.2986,-9.8022e-07,-1.05e-06,0.0,0 STARLINK-5584,1 55769U 23028AE  23336.87908709 -.00000105  00000-0 -98022-6 0  9997,2 55769  69.9993 151.7216 0002596 258.7882 101.2986 14.98329400 42535,6950.195,96.107,573.864,570.255,0.0
55769.0,STARLINK-5584,PAYLOAD,2023-12-03 14:43:22,14.9832802,0.0002849,69.9992,149.8702,261.2952,98.7884,-7.1739e-05,-9.49e-06,0.0,0 STARLINK-5584,1 55769U 23028AE  23337.61344995 -.00000949  00000-0 -71739-4 0  9991,2 55769  69.9992 149.8702 0002849 261.2952  98.7884 14.98328020 42646,6950.199,96.107,574.044,570.084,0.0
55769.0,STARLINK-5584,PAYLOAD,2023-12-03 19:31:46,14.98323776,0.000289,69.9994,149.3654,261.36,98.7232,-9.8776e-05,-1.271e-05,0.0,0 STARLINK-5584,1 55769U 23028AE  23337.81373384 -.00001271  00000-0 -98776-4 0  9996,2 55769  69.9994 149.3654 0002890 261.3600  98.7232 14.98323776 42668,6950.212,96.107,574.086,570.069,0.0
55769.0,STARLINK-5584,PAYLOAD,2023-12-04 13:09:15,14.98326319,0.000305,69.9987,147.5123,267.6883,92.3927,-1.633e-05,-2.88e-06,0.0,0 STARLINK-5584,1 55769U 23028AE  23338.54809165 -.00000288  00000-0 -16330-4 0  9991,2 55769  69.9987 147.5123 0003050 267.6883  92.3927 14.98326319 42782,6950.204,96.107,574.189,569.949,0.0
55769.0,STARLINK-5584,PAYLOAD,2023-12-05 11:35:06,14.98342491,0.0003164,69.9987,145.1566,270.1197,89.9599,0.000215,2.474e-05,0.0,0 STARLINK-5584,1 55769U 23028AE  23339.48270946  .00002474  00000-0  21500-3 0  9995,2 55769  69.9987 145.1566 0003164 270.1197  89.9599 14.98342491 42911,6950.154,96.106,574.218,569.82,0.0
55769.0,STARLINK-5584,PAYLOAD,2023-12-05 13:11:13,14.98346863,0.0002977,69.999,144.9873,269.181,90.9008,0.00028755,3.341e-05,0.0,0 STARLINK-5584,1 55769U 23028AE  23339.54946430  .00003341  00000-0  28755-3 0  9993,2 55769  69.9990 144.9873 0002977 269.1810  90.9008 14.98346863 42930,6950.141,96.106,574.075,569.937,0.0
55769.0,STARLINK-5584,PAYLOAD,2023-12-06 11:37:06,14.98340829,0.0002911,69.9959,142.6256,255.6265,104.4571,8.3079e-05,8.99e-06,0.0,0 STARLINK-5584,1 55769U 23028AE  23340.48410656  .00000899  00000-0  83079-4 0  9990,2 55769  69.9959 142.6256 0002911 255.6265 104.4571 14.98340829 43064,6950.159,96.106,574.048,570.001,0.0
55769.0,STARLINK-5584,PAYLOAD,2023-12-06 13:13:14,14.98340932,0.000276,69.9906,142.4535,242.1809,117.907,4.1801e-05,4.06e-06,0.0,0 STARLINK-5584,1 55769U 23028AE  23340.55086593  .00000406  00000-0  41801-4 0  9998,2 55769  69.9906 142.4535 0002760 242.1809 117.9070 14.98340932 43081,6950.159,96.106,573.942,570.106,0.0
55769.0,STARLINK-5584,PAYLOAD,2023-12-07 11:39:08,14.98339379,0.0002745,69.9952,140.1034,251.9756,108.1104,-0.00037457,-4.56e-05,0.0,0 STARLINK-5584,1 55769U 23028AE  23341.48551613 -.00004560  00000-0 -37457-3 0  9999,2 55769  69.9952 140.1034 0002745 251.9756 108.1104 14.98339379 43211,6950.164,96.106,573.937,570.121,0.0
55769.0,STARLINK-5584,PAYLOAD,2023-12-07 13:15:16,14.98338694,0.0003009,69.9972,139.9367,265.4021,94.6794,-0.00030571,-3.74e-05,0.0,0 STARLINK-5584,1 55769U 23028AE  23341.55227494 -.00003740  00000-0 -30571-3 0  9993,2 55769  69.9972 139.9367 0003009 265.4021  94.6794 14.98338694 43232,6950.166,96.106,574.122,569.94,0.0
55769.0,STARLINK-5584,PAYLOAD,2023-12-08 11:41:09,14.98318914,0.0002982,69.999,137.5826,264.6606,95.4213,4.1115e-05,3.97e-06,0.0,0 STARLINK-5584,1 55769U 23028AE  23342.48691694  .00000397  00000-0  41115-4 0  9993,2 55769  69.9990 137.5826 0002982 264.6606  95.4213 14.98318914 43367,6950.227,96.108,574.165,570.02,0.0
55769.0,STARLINK-5584,PAYLOAD,2023-12-08 13:17:17,14.98318761,0.0003001,69.999,137.4141,264.3842,95.6975,3.7748e-05,3.57e-06,0.0,0 STARLINK-5584,1 55769U 23028AE  23342.55367755  .00000357  00000-0  37748-4 0  9992,2 55769  69.9990 137.4141 0003001 264.3842  95.6975 14.98318761 43387,6950.228,96.108,574.178,570.007,0.0
55769.0,STARLINK-5584,PAYLOAD,2023-12-09 11:43:11,14.98321533,0.0003029,69.999,135.0575,265.3742,94.7071,1.5009e-05,8.6e-07,0.0,0 STARLINK-5584,1 55769U 23028AE  23343.48832244  .00000086  00000-0  15009-4 0  9990,2 55769  69.9990 135.0575 0003029 265.3742  94.7071 14.98321533 43515,6950.219,96.108,574.189,569.979,0.0
55769.0,STARLINK-5584,PAYLOAD,2023-12-09 13:19:19,14.98321408,0.0003043,69.9989,134.8891,265.3417,94.7395,1.2225e-05,5.3e-07,0.0,0 STARLINK-5584,1 55769U 23028AE  23343.55508290  .00000053  00000-0  12225-4 0  9990,2 55769  69.9989 134.8891 0003043 265.3417  94.7395 14.98321408 43538,6950.219,96.108,574.199,569.97,0.0
55769.0,STARLINK-5584,PAYLOAD,2023-12-09 19:43:51,14.983216,0.0003045,69.9989,134.2158,265.5315,94.5496,1.3056e-05,6.3e-07,0.0,0 STARLINK-5584,1 55769U 23028AE  23343.82212416  .00000063  00000-0  13056-4 0  9996,2 55769  69.9989 134.2158 0003045 265.5315  94.5496 14.98321600 43577,6950.219,96.108,574.2,569.968,0.0
55769.0,STARLINK-5584,PAYLOAD,2023-12-10 14:57:28,14.98321366,0.0002989,69.9994,132.1968,264.8809,95.2008,-3.9189e-06,-1.4e-06,0.0,0 STARLINK-5584,1 55769U 23028AE  23344.62324920 -.00000140  00000-0 -39189-5 0  9993,2 55769  69.9994 132.1968 0002989 264.8809  95.2008 14.98321366 43694,6950.22,96.108,574.162,570.007,0.0
55769.0,STARLINK-5584,PAYLOAD,2023-12-10 19:45:53,14.98320598,0.0003017,69.9996,131.6923,265.9027,94.1787,-9.0508e-06,-2.01e-06,0.0,0 STARLINK-5584,1 55769U 23028AE  23344.82353110 -.00000201  00000-0 -90508-5 0  9998,2 55769  69.9996 131.6923 0003017 265.9027  94.1787 14.98320598 43719,6950.222,96.108,574.184,569.99,0.0
55769.0,STARLINK-5584,PAYLOAD,2023-12-11 13:23:21,14.98325437,0.0003066,69.9996,129.8408,267.1021,92.9787,3.1186e-05,2.79e-06,0.0,0 STARLINK-5584,1 55769U 23028AE  23345.55788990  .00000279  00000-0  31186-4 0  9996,2 55769  69.9996 129.8408 0003066 267.1021  92.9787 14.98325437 43834,6950.207,96.107,574.203,569.941,0.0
55769.0,STARLINK-5584,PAYLOAD,2023-12-11 19:47:53,14.98327059,0.0003045,69.9995,129.1673,267.0462,93.0348,4.7913e-05,4.79e-06,0.0,0 STARLINK-5584,1 55769U 23028AE  23345.82492907  .00000479  00000-0  47913-4 0  9993,2 55769  69.9995 129.1673 0003045 267.0462  93.0348 14.98327059 43865,6950.202,96.107,574.183,569.951,0.0
